[
  {"name": "Afghanistan", "code": "AF", "dial_code": "+93", "nationalities": ["Afghan"]},
  {"name": "Åland Islands", "code": "AX", "dial_code": "+358", "nationalities": ["Åland Islander", "Finnish"]},
  {"name": "Albania", "code": "AL", "dial_code": "+355", "nationalities": ["Albanian"]},
  {"name": "Algeria", "code": "DZ", "dial_code": "+213", "nationalities": ["Algerian"]},
  {"name": "American Samoa", "code": "AS", "dial_code": "+1-684", "nationalities": ["American Samoan"]},
  {"name": "Andorra", "code": "AD", "dial_code": "+376", "nationalities": ["Andorran"]},
  {"name": "Angola", "code": "AO", "dial_code": "+244", "nationalities": ["Angolan"]},
  {"name": "Anguilla", "code": "AI", "dial_code": "+1-264", "nationalities": ["Anguillan"]},
  {"name": "Antarctica", "code": "AQ", "dial_code": "+672", "nationalities": []},
  {"name": "Antigua and Barbuda", "code": "AG", "dial_code": "+1-268", "nationalities": ["Antiguan", "Barbudan"]},
  {"name": "Argentina", "code": "AR", "dial_code": "+54", "nationalities": ["Argentine"]},
  {"name": "Armenia", "code": "AM", "dial_code": "+374", "nationalities": ["Armenian"]},
  {"name": "Aruba", "code": "AW", "dial_code": "+297", "nationalities": ["Aruban"]},
  {"name": "Australia", "code": "AU", "dial_code": "+61", "nationalities": ["Australian"]},
  {"name": "Austria", "code": "AT", "dial_code": "+43", "nationalities": ["Austrian"]},
  {"name": "Azerbaijan", "code": "AZ", "dial_code": "+994", "nationalities": ["Azerbaijani"]},
  {"name": "Bahamas", "code": "BS", "dial_code": "+1-242", "nationalities": ["Bahamian"]},
  {"name": "Bahrain", "code": "BH", "dial_code": "+973", "nationalities": ["Bahraini"]},
  {"name": "Bangladesh", "code": "BD", "dial_code": "+880", "nationalities": ["Bangladeshi"]},
  {"name": "Barbados", "code": "BB", "dial_code": "+1-246", "nationalities": ["Barbadian"]},
  {"name": "Belarus", "code": "BY", "dial_code": "+375", "nationalities": ["Belarusian"]},
  {"name": "Belgium", "code": "BE", "dial_code": "+32", "nationalities": ["Belgian"]},
  {"name": "Belize", "code": "BZ", "dial_code": "+501", "nationalities": ["Belizean"]},
  {"name": "Benin", "code": "BJ", "dial_code": "+229", "nationalities": ["Beninese"]},
  {"name": "Bermuda", "code": "BM", "dial_code": "+1-441", "nationalities": ["Bermudian"]},
  {"name": "Bhutan", "code": "BT", "dial_code": "+975", "nationalities": ["Bhutanese"]},
  {"name": "Bolivia", "code": "BO", "dial_code": "+591", "nationalities": ["Bolivian"]},
  {"name": "Bosnia and Herzegovina", "code": "BA", "dial_code": "+387", "nationalities": ["Bosnian", "Herzegovinian"]},
  {"name": "Botswana", "code": "BW", "dial_code": "+267", "nationalities": ["Motswana"]},
  {"name": "Bouvet Island", "code": "BV", "dial_code": "+47", "nationalities": []},
  {"name": "Brazil", "code": "BR", "dial_code": "+55", "nationalities": ["Brazilian"]},
  {"name": "British Indian Ocean Territory", "code": "IO", "dial_code": "+246", "nationalities": []},
  {"name": "Brunei Darussalam", "code": "BN", "dial_code": "+673", "nationalities": ["Bruneian"]},
  {"name": "Bulgaria", "code": "BG", "dial_code": "+359", "nationalities": ["Bulgarian"]},
  {"name": "Burkina Faso", "code": "BF", "dial_code": "+226", "nationalities": ["Burkinabe"]},
  {"name": "Burundi", "code": "BI", "dial_code": "+257", "nationalities": ["Burundian"]},
  {"name": "Cambodia", "code": "KH", "dial_code": "+855", "nationalities": ["Cambodian"]},
  {"name": "Cameroon", "code": "CM", "dial_code": "+237", "nationalities": ["Cameroonian"]},
  {"name": "Canada", "code": "CA", "dial_code": "+1", "nationalities": ["Canadian"]},
  {"name": "Cape Verde", "code": "CV", "dial_code": "+238", "nationalities": ["Cape Verdean"]},
  {"name": "Cayman Islands", "code": "KY", "dial_code": "+1-345", "nationalities": ["Caymanian"]},
  {"name": "Central African Republic", "code": "CF", "dial_code": "+236", "nationalities": ["Central African"]},
  {"name": "Chad", "code": "TD", "dial_code": "+235", "nationalities": ["Chadian"]},
  {"name": "Chile", "code": "CL", "dial_code": "+56", "nationalities": ["Chilean"]},
  {"name": "China", "code": "CN", "dial_code": "+86", "nationalities": ["Chinese"]},
  {"name": "Christmas Island", "code": "CX", "dial_code": "+61", "nationalities": []},
  {"name": "Cocos (Keeling) Islands", "code": "CC", "dial_code": "+61", "nationalities": []},
  {"name": "Colombia", "code": "CO", "dial_code": "+57", "nationalities": ["Colombian"]},
  {"name": "Comoros", "code": "KM", "dial_code": "+269", "nationalities": ["Comoran"]},
  {"name": "Congo", "code": "CG", "dial_code": "+242", "nationalities": ["Congolese"]},
  {"name": "Congo, The Democratic Republic of the", "code": "CD", "dial_code": "+243", "nationalities": ["Congolese"]},
  {"name": "Cook Islands", "code": "CK", "dial_code": "+682", "nationalities": ["Cook Islander"]},
  {"name": "Costa Rica", "code": "CR", "dial_code": "+506", "nationalities": ["Costa Rican"]},
  {"name": "Cote D\"Ivoire", "code": "CI", "dial_code": "+225", "nationalities": ["Ivorian"]},
  {"name": "Croatia", "code": "HR", "dial_code": "+385", "nationalities": ["Croatian"]},
  {"name": "Cuba", "code": "CU", "dial_code": "+53", "nationalities": ["Cuban"]},
  {"name": "Cyprus", "code": "CY", "dial_code": "+357", "nationalities": ["Cypriot"]},
  {"name": "Czech Republic", "code": "CZ", "dial_code": "+420", "nationalities": ["Czech"]},
  {"name": "Denmark", "code": "DK", "dial_code": "+45", "nationalities": ["Danish"]},
  {"name": "Djibouti", "code": "DJ", "dial_code": "+253", "nationalities": ["Djiboutian"]},
  {"name": "Dominica", "code": "DM", "dial_code": "+1-767", "nationalities": ["Dominican"]},
  {"name": "Dominican Republic", "code": "DO", "dial_code": "+1-809", "nationalities": ["Dominican"]},
  {"name": "Ecuador", "code": "EC", "dial_code": "+593", "nationalities": ["Ecuadorian"]},
  {"name": "Egypt", "code": "EG", "dial_code": "+20", "nationalities": ["Egyptian"]},
  {"name": "El Salvador", "code": "SV", "dial_code": "+503", "nationalities": ["Salvadoran"]},
  {"name": "Equatorial Guinea", "code": "GQ", "dial_code": "+240", "nationalities": ["Equatorial Guinean"]},
  {"name": "Eritrea", "code": "ER", "dial_code": "+291", "nationalities": ["Eritrean"]},
  {"name": "Estonia", "code": "EE", "dial_code": "+372", "nationalities": ["Estonian"]},
  {"name": "Ethiopia", "code": "ET", "dial_code": "+251", "nationalities": ["Ethiopian"]},
  {"name": "Falkland Islands (Malvinas)", "code": "FK", "dial_code": "+500", "nationalities": ["Falkland Islander"]},
  {"name": "Faroe Islands", "code": "FO", "dial_code": "+298", "nationalities": ["Faroese"]},
  {"name": "Fiji", "code": "FJ", "dial_code": "+679", "nationalities": ["Fijian"]},
  {"name": "Finland", "code": "FI", "dial_code": "+358", "nationalities": ["Finnish"]},
  {"name": "France", "code": "FR", "dial_code": "+33", "nationalities": ["French"]},
  {"name": "French Guiana", "code": "GF", "dial_code": "+594", "nationalities": ["French Guianese"]},
  {"name": "French Polynesia", "code": "PF", "dial_code": "+689", "nationalities": ["French Polynesian"]},
  {"name": "French Southern Territories", "code": "TF", "dial_code": "+262", "nationalities": []},
  {"name": "Gabon", "code": "GA", "dial_code": "+241", "nationalities": ["Gabonese"]},
  {"name": "Gambia", "code": "GM", "dial_code": "+220", "nationalities": ["Gambian"]},
  {"name": "Georgia", "code": "GE", "dial_code": "+995", "nationalities": ["Georgian"]},
  {"name": "Germany", "code": "DE", "dial_code": "+49", "nationalities": ["German"]},
  {"name": "Ghana", "code": "GH", "dial_code": "+233", "nationalities": ["Ghanaian"]},
  {"name": "Gibraltar", "code": "GI", "dial_code": "+350", "nationalities": ["Gibraltarian"]},
  {"name": "Greece", "code": "GR", "dial_code": "+30", "nationalities": ["Greek"]},
  {"name": "Greenland", "code": "GL", "dial_code": "+299", "nationalities": ["Greenlander"]},
  {"name": "Grenada", "code": "GD", "dial_code": "+1-473", "nationalities": ["Grenadian"]},
  {"name": "Guadeloupe", "code": "GP", "dial_code": "+590", "nationalities": ["Guadeloupean"]},
  {"name": "Guam", "code": "GU", "dial_code": "+1-671", "nationalities": ["Guamanian"]},
  {"name": "Guatemala", "code": "GT", "dial_code": "+502", "nationalities": ["Guatemalan"]},
  {"name": "Guernsey", "code": "GG", "dial_code": "+44-1481", "nationalities": ["Channel Islander"]},
  {"name": "Guinea", "code": "GN", "dial_code": "+224", "nationalities": ["Guinean"]},
  {"name": "Guinea-Bissau", "code": "GW", "dial_code": "+245", "nationalities": ["Bissau-Guinean"]},
  {"name": "Guyana", "code": "GY", "dial_code": "+592", "nationalities": ["Guyanese"]},
  {"name": "Haiti", "code": "HT", "dial_code": "+509", "nationalities": ["Haitian"]},
  {"name": "Heard Island and Mcdonald Islands", "code": "HM", "dial_code": "+672", "nationalities": []},
  {"name": "Holy See (Vatican City State)", "code": "VA", "dial_code": "+379", "nationalities": ["Vatican"]},
  {"name": "Honduras", "code": "HN", "dial_code": "+504", "nationalities": ["Honduran"]},
  {"name": "Hong Kong", "code": "HK", "dial_code": "+852", "nationalities": ["Hong Konger"]},
  {"name": "Hungary", "code": "HU", "dial_code": "+36", "nationalities": ["Hungarian"]},
  {"name": "Iceland", "code": "IS", "dial_code": "+354", "nationalities": ["Icelandic"]},
  {"name": "India", "code": "IN", "dial_code": "+91", "nationalities": ["Indian"]},
  {"name": "Indonesia", "code": "ID", "dial_code": "+62", "nationalities": ["Indonesian"]},
  {"name": "Iran, Islamic Republic Of", "code": "IR", "dial_code": "+98", "nationalities": ["Iranian"]},
  {"name": "Iraq", "code": "IQ", "dial_code": "+964", "nationalities": ["Iraqi"]},
  {"name": "Ireland", "code": "IE", "dial_code": "+353", "nationalities": ["Irish"]},
  {"name": "Isle of Man", "code": "IM", "dial_code": "+44-1624", "nationalities": ["Manx"]},
  {"name": "Israel", "code": "IL", "dial_code": "+972", "nationalities": ["Israeli"]},
  {"name": "Italy", "code": "IT", "dial_code": "+39", "nationalities": ["Italian"]},
  {"name": "Jamaica", "code": "JM", "dial_code": "+1-876", "nationalities": ["Jamaican"]},
  {"name": "Japan", "code": "JP", "dial_code": "+81", "nationalities": ["Japanese"]},
  {"name": "Jersey", "code": "JE", "dial_code": "+44-1534", "nationalities": ["Channel Islander"]},
  {"name": "Jordan", "code": "JO", "dial_code": "+962", "nationalities": ["Jordanian"]},
  {"name": "Kazakhstan", "code": "KZ", "dial_code": "+7", "nationalities": ["Kazakh"]},
  {"name": "Kenya", "code": "KE", "dial_code": "+254", "nationalities": ["Kenyan"]},
  {"name": "Kiribati", "code": "KI", "dial_code": "+686", "nationalities": ["I-Kiribati"]},
  {"name": "Korea, Democratic People\"S Republic of", "code": "KP", "dial_code": "+850", "nationalities": ["North Korean"]},
  {"name": "Korea, Republic of", "code": "KR", "dial_code": "+82", "nationalities": ["South Korean"]},
  {"name": "Kuwait", "code": "KW", "dial_code": "+965", "nationalities": ["Kuwaiti"]},
  {"name": "Kyrgyzstan", "code": "KG", "dial_code": "+996", "nationalities": ["Kyrgyz"]},
  {"name": "Lao People\"S Democratic Republic", "code": "LA", "dial_code": "+856", "nationalities": ["Lao"]},
  {"name": "Latvia", "code": "LV", "dial_code": "+371", "nationalities": ["Latvian"]},
  {"name": "Lebanon", "code": "LB", "dial_code": "+961", "nationalities": ["Lebanese"]},
  {"name": "Lesotho", "code": "LS", "dial_code": "+266", "nationalities": ["Basotho"]},
  {"name": "Liberia", "code": "LR", "dial_code": "+231", "nationalities": ["Liberian"]},
  {"name": "Libyan Arab Jamahiriya", "code": "LY", "dial_code": "+218", "nationalities": ["Libyan"]},
  {"name": "Liechtenstein", "code": "LI", "dial_code": "+423", "nationalities": ["Liechtensteiner"]},
  {"name": "Lithuania", "code": "LT", "dial_code": "+370", "nationalities": ["Lithuanian"]},
  {"name": "Luxembourg", "code": "LU", "dial_code": "+352", "nationalities": ["Luxembourger"]},
  {"name": "Macao", "code": "MO", "dial_code": "+853", "nationalities": ["Macanese"]},
  {"name": "Macedonia, The Former Yugoslav Republic of", "code": "MK", "dial_code": "+389", "nationalities": ["Macedonian"]},
  {"name": "Madagascar", "code": "MG", "dial_code": "+261", "nationalities": ["Malagasy"]},
  {"name": "Malawi", "code": "MW", "dial_code": "+265", "nationalities": ["Malawian"]},
  {"name": "Malaysia", "code": "MY", "dial_code": "+60", "nationalities": ["Malaysian"]},
  {"name": "Maldives", "code": "MV", "dial_code": "+960", "nationalities": ["Maldivian"]},
  {"name": "Mali", "code": "ML", "dial_code": "+223", "nationalities": ["Malian"]},
  {"name": "Malta", "code": "MT", "dial_code": "+356", "nationalities": ["Maltese"]},
  {"name": "Marshall Islands", "code": "MH", "dial_code": "+692", "nationalities": ["Marshallese"]},
  {"name": "Martinique", "code": "MQ", "dial_code": "+596", "nationalities": ["Martinican"]},
  {"name": "Mauritania", "code": "MR", "dial_code": "+222", "nationalities": ["Mauritanian"]},
  {"name": "Mauritius", "code": "MU", "dial_code": "+230", "nationalities": ["Mauritian"]},
  {"name": "Mayotte", "code": "YT", "dial_code": "+262", "nationalities": ["Mahoran"]},
  {"name": "Mexico", "code": "MX", "dial_code": "+52", "nationalities": ["Mexican"]},
  {"name": "Micronesia, Federated States of", "code": "FM", "dial_code": "+691", "nationalities": ["Micronesian"]},
  {"name": "Moldova, Republic of", "code": "MD", "dial_code": "+373", "nationalities": ["Moldovan"]},
  {"name": "Monaco", "code": "MC", "dial_code": "+377", "nationalities": ["Monégasque"]},
  {"name": "Mongolia", "code": "MN", "dial_code": "+976", "nationalities": ["Mongolian"]},
  {"name": "Montserrat", "code": "MS", "dial_code": "+1-664", "nationalities": ["Montserratian"]},
  {"name": "Morocco", "code": "MA", "dial_code": "+212", "nationalities": ["Moroccan"]},
  {"name": "Mozambique", "code": "MZ", "dial_code": "+258", "nationalities": ["Mozambican"]},
  {"name": "Myanmar", "code": "MM", "dial_code": "+95", "nationalities": ["Burmese"]},
  {"name": "Namibia", "code": "NA", "dial_code": "+264", "nationalities": ["Namibian"]},
  {"name": "Nauru", "code": "NR", "dial_code": "+674", "nationalities": ["Nauruan"]},
  {"name": "Nepal", "code": "NP", "dial_code": "+977", "nationalities": ["Nepali"]},
  {"name": "Netherlands", "code": "NL", "dial_code": "+31", "nationalities": ["Dutch"]},
  {"name": "Netherlands Antilles", "code": "AN", "dial_code": "+599", "nationalities": []},
  {"name": "New Caledonia", "code": "NC", "dial_code": "+687", "nationalities": ["New Caledonian"]},
  {"name": "New Zealand", "code": "NZ", "dial_code": "+64", "nationalities": ["New Zealander"]},
  {"name": "Nicaragua", "code": "NI", "dial_code": "+505", "nationalities": ["Nicaraguan"]},
  {"name": "Niger", "code": "NE", "dial_code": "+227", "nationalities": ["Nigerien"]},
  {"name": "Nigeria", "code": "NG", "dial_code": "+234", "nationalities": ["Nigerian"]},
  {"name": "Niue", "code": "NU", "dial_code": "+683", "nationalities": ["Niuean"]},
  {"name": "Norfolk Island", "code": "NF", "dial_code": "+672", "nationalities": ["Norfolk Islander"]},
  {"name": "Northern Mariana Islands", "code": "MP", "dial_code": "+1-670", "nationalities": ["Northern Marianan"]},
  {"name": "Norway", "code": "NO", "dial_code": "+47", "nationalities": ["Norwegian"]},
  {"name": "Oman", "code": "OM", "dial_code": "+968", "nationalities": ["Omani"]},
  {"name": "Pakistan", "code": "PK", "dial_code": "+92", "nationalities": ["Pakistani"]},
  {"name": "Palau", "code": "PW", "dial_code": "+680", "nationalities": ["Palauan"]},
  {"name": "Palestinian Territory, Occupied", "code": "PS", "dial_code": "+970", "nationalities": ["Palestinian"]},
  {"name": "Panama", "code": "PA", "dial_code": "+507", "nationalities": ["Panamanian"]},
  {"name": "Papua New Guinea", "code": "PG", "dial_code": "+675", "nationalities": ["Papua New Guinean"]},
  {"name": "Paraguay", "code": "PY", "dial_code": "+595", "nationalities": ["Paraguayan"]},
  {"name": "Peru", "code": "PE", "dial_code": "+51", "nationalities": ["Peruvian"]},
  {"name": "Philippines", "code": "PH", "dial_code": "+63", "nationalities": ["Filipino"]},
  {"name": "Pitcairn", "code": "PN", "dial_code": "+64", "nationalities": ["Pitcairn Islander"]},
  {"name": "Poland", "code": "PL", "dial_code": "+48", "nationalities": ["Polish"]},
  {"name": "Portugal", "code": "PT", "dial_code": "+351", "nationalities": ["Portuguese"]},
  {"name": "Puerto Rico", "code": "PR", "dial_code": "+1-787", "nationalities": ["Puerto Rican"]},
  {"name": "Qatar", "code": "QA", "dial_code": "+974", "nationalities": ["Qatari"]},
  {"name": "Reunion", "code": "RE", "dial_code": "+262", "nationalities": ["Réunionese"]},
  {"name": "Romania", "code": "RO", "dial_code": "+40", "nationalities": ["Romanian"]},
  {"name": "Russian Federation", "code": "RU", "dial_code": "+7", "nationalities": ["Russian"]},
  {"name": "RWANDA", "code": "RW", "dial_code": "+250", "nationalities": ["Rwandan"]},
  {"name": "Saint Helena", "code": "SH", "dial_code": "+290", "nationalities": ["Saint Helenian"]},
  {"name": "Saint Kitts and Nevis", "code": "KN", "dial_code": "+1-869", "nationalities": ["Kittitian or Nevisian"]},
  {"name": "Saint Lucia", "code": "LC", "dial_code": "+1-758", "nationalities": ["Saint Lucian"]},
  {"name": "Saint Pierre and Miquelon", "code": "PM", "dial_code": "+508", "nationalities": ["Saint-Pierrais or Miquelonnais"]},
  {"name": "Saint Vincent and the Grenadines", "code": "VC", "dial_code": "+1-784", "nationalities": ["Saint Vincentian"]},
  {"name": "Samoa", "code": "WS", "dial_code": "+685", "nationalities": ["Samoan"]},
  {"name": "San Marino", "code": "SM", "dial_code": "+378", "nationalities": ["Sammarinese"]},
  {"name": "Sao Tome and Principe", "code": "ST", "dial_code": "+239", "nationalities": ["São Toméan"]},
  {"name": "Saudi Arabia", "code": "SA", "dial_code": "+966", "nationalities": ["Saudi"]},
  {"name": "Senegal", "code": "SN", "dial_code": "+221", "nationalities": ["Senegalese"]},
  {"name": "Serbia and Montenegro", "code": "CS", "dial_code": "+381", "nationalities": ["Serbian", "Montenegrin"]},
  {"name": "Seychelles", "code": "SC", "dial_code": "+248", "nationalities": ["Seychellois"]},
  {"name": "Sierra Leone", "code": "SL", "dial_code": "+232", "nationalities": ["Sierra Leonean"]},
  {"name": "Singapore", "code": "SG", "dial_code": "+65", "nationalities": ["Singaporean"]},
  {"name": "Slovakia", "code": "SK", "dial_code": "+421", "nationalities": ["Slovak"]},
  {"name": "Slovenia", "code": "SI", "dial_code": "+386", "nationalities": ["Slovene"]},
  {"name": "Solomon Islands", "code": "SB", "dial_code": "+677", "nationalities": ["Solomon Islander"]},
  {"name": "Somalia", "code": "SO", "dial_code": "+252", "nationalities": ["Somali"]},
  {"name": "South Africa", "code": "ZA", "dial_code": "+27", "nationalities": ["South African"]},
  {"name": "South Georgia and the South Sandwich Islands", "code": "GS", "dial_code": "+500", "nationalities": []},
  {"name": "Spain", "code": "ES", "dial_code": "+34", "nationalities": ["Spanish"]},
  {"name": "Sri Lanka", "code": "LK", "dial_code": "+94", "nationalities": ["Sri Lankan"]},
  {"name": "Sudan", "code": "SD", "dial_code": "+249", "nationalities": ["Sudanese"]},
  {"name": "Suri", "code": "SR", "dial_code": "+597", "nationalities": ["Surinamese"]},
  {"name": "Svalbard and Jan Mayen", "code": "SJ", "dial_code": "+47", "nationalities": []},
  {"name": "Swaziland", "code": "SZ", "dial_code": "+268", "nationalities": ["Swazi"]},
  {"name": "Sweden", "code": "SE", "dial_code": "+46", "nationalities": ["Swedish"]},
  {"name": "Switzerland", "code": "CH", "dial_code": "+41", "nationalities": ["Swiss"]},
  {"name": "Syrian Arab Republic", "code": "SY", "dial_code": "+963", "nationalities": ["Syrian"]},
  {"name": "Taiwan, Province of China", "code": "TW", "dial_code": "+886", "nationalities": ["Taiwanese"]},
  {"name": "Tajikistan", "code": "TJ", "dial_code": "+992", "nationalities": ["Tajik"]},
  {"name": "Tanzania, United Republic of", "code": "TZ", "dial_code": "+255", "nationalities": ["Tanzanian"]},
  {"name": "Thailand", "code": "TH", "dial_code": "+66", "nationalities": ["Thai"]},
  {"name": "Timor-Leste", "code": "TL", "dial_code": "+670", "nationalities": ["Timorese"]},
  {"name": "Togo", "code": "TG", "dial_code": "+228", "nationalities": ["Togolese"]},
  {"name": "Tokelau", "code": "TK", "dial_code": "+690", "nationalities": ["Tokelauan"]},
  {"name": "Tonga", "code": "TO", "dial_code": "+676", "nationalities": ["Tongan"]},
  {"name": "Trinidad and Tobago", "code": "TT", "dial_code": "+1-868", "nationalities": ["Trinidadian", "Tobagonian"]},
  {"name": "Tunisia", "code": "TN", "dial_code": "+216", "nationalities": ["Tunisian"]},
  {"name": "Turkey", "code": "TR", "dial_code": "+90", "nationalities": ["Turkish"]},
  {"name": "Turkmenistan", "code": "TM", "dial_code": "+993", "nationalities": ["Turkmen"]},
  {"name": "Turks and Caicos Islands", "code": "TC", "dial_code": "+1-649", "nationalities": ["Turks and Caicos Islander"]},
  {"name": "Tuvalu", "code": "TV", "dial_code": "+688", "nationalities": ["Tuvaluan"]},
  {"name": "Uganda", "code": "UG", "dial_code": "+256", "nationalities": ["Ugandan"]},
  {"name": "Ukraine", "code": "UA", "dial_code": "+380", "nationalities": ["Ukrainian"]},
  {"name": "United Arab Emirates", "code": "AE", "dial_code": "+971", "nationalities": ["Emirati"]},
  {"name": "United Kingdom", "code": "GB", "dial_code": "+44", "nationalities": ["British"]},
  {"name": "United States", "code": "US", "dial_code": "+1", "nationalities": ["American"]},
  {"name": "United States Minor Outlying Islands", "code": "UM", "dial_code": "+1", "nationalities": []},
  {"name": "Uruguay", "code": "UY", "dial_code": "+598", "nationalities": ["Uruguayan"]},
  {"name": "Uzbekistan", "code": "UZ", "dial_code": "+998", "nationalities": ["Uzbek"]},
  {"name": "Vanuatu", "code": "VU", "dial_code": "+678", "nationalities": ["Ni-Vanuatu"]},
  {"name": "Venezuela", "code": "VE", "dial_code": "+58", "nationalities": ["Venezuelan"]},
  {"name": "Viet Nam", "code": "VN", "dial_code": "+84", "nationalities": ["Vietnamese"]},
  {"name": "Virgin Islands, British", "code": "VG", "dial_code": "+1-284", "nationalities": ["British Virgin Islander"]},
  {"name": "Virgin Islands, U.S.", "code": "VI", "dial_code": "+1-340", "nationalities": ["U.S. Virgin Islander"]},
  {"name": "Wallis and Futuna", "code": "WF", "dial_code": "+681", "nationalities": ["Wallisian", "Futunan"]},
  {"name": "Western Sahara", "code": "EH", "dial_code": "+212", "nationalities": ["Sahrawi"]},
  {"name": "Yemen", "code": "YE", "dial_code": "+967", "nationalities": ["Yemeni"]},
  {"name": "Zambia", "code": "ZM", "dial_code": "+260", "nationalities": ["Zambian"]},
  {"name": "Zimbabwe", "code": "ZW", "dial_code": "+263", "nationalities": ["Zimbabwean"]}
]
